{
  "norad_id": 56416,
  "name": "STARLINK-6260",
  "history": [
    {
      "epoch": "2026-03-28T15:49:27.127200",
      "apogee_km": 559.8953847381335,
      "perigee_km": 558.2059020594597,
      "latitude_deg": 41.72148568897271,
      "longitude_deg": -115.10319199995138,
      "semi_major_axis_km": 6937.187643398796,
      "eccentricity": 0.00012177,
      "inclination_deg": 43.0037,
      "raan_deg": 68.7736,
      "arg_perigee_deg": 267.6968,
      "mean_anomaly_deg": 92.3735,
      "mean_motion_rev_day": 15.02545386
    }
  ]
}